{"type": "FeatureCollection", "features": [ {"type": "Feature", "properties": {"norad_id": 66550, "name": "CZ-7A R/B", "group": "last-30-days", "lat": 13.969571867264689, "lon": 16.754572148378085, "alt_km": 3598.351271366143, "timestamp": "2025-12-08T15:42:48.536814+00:00", "meta": {"OBJECT_NAME": "CZ-7A R/B", "OBJECT_ID": "2025-277B", "EPOCH": "2025-12-08T01:26:17.855232", "MEAN_MOTION": 2.5400691, "ECCENTRICITY": 0.71326348, "INCLINATION": 14.4014, "RA_OF_ASC_NODE": 272.2093, "ARG_OF_PERICENTER": 184.6217, "MEAN_ANOMALY": 160.9639, "EPHEMERIS_TYPE": 0, "CLASSIFICATION_TYPE": "U", "NORAD_CAT_ID": 66550, "ELEMENT_SET_NO": 999, "REV_AT_EPOCH": 22, "BSTAR": 0.0031144406, "MEAN_MOTION_DOT": 0.01567094, "MEAN_MOTION_DDOT": 1.09366e-06}, "tle": {"line1": "1 66550U 25277B   25342.05992888  .01567094  10937-5  31144-2 0  9992", "line2": "2 66550  14.4014 272.2093 7132634 184.6217 160.9639  2.54006910   223"}}, "geometry": {"type": "Point", "coordinates": [16.754572148378085, 13.969571867264689]}}, {"type": "Feature", "properties": {"norad_id": 66551, "name": "UNKNOWN", "group": "last-30-days", "lat": -49.64107866905594, "lon": 145.08841642457762, "alt_km": 345.1075113889492, "timestamp": "2025-12-08T15:42:48.536826+00:00", "meta": {"OBJECT_NAME": "UNKNOWN", "OBJECT_ID": "2025-271AE", "EPOCH": "2025-12-02T16:00:03.000096", "MEAN_MOTION": 15.87051116, "ECCENTRICITY": 7.17e-05, "INCLINATION": 53.1571, "RA_OF_ASC_NODE": 236.7807, "ARG_OF_PERICENTER": 110.7411, "MEAN_ANOMALY": 313.9012, "EPHEMERIS_TYPE": 0, "CLASSIFICATION_TYPE": "U", "NORAD_CAT_ID": 66551, "ELEMENT_SET_NO": 999, "REV_AT_EPOCH": 262, "BSTAR": -0.0074303, "MEAN_MOTION_DOT": -0.01709685, "MEAN_MOTION_DDOT": 0}, "tle": {"line1": "1 66551U 25271AE  25336.66670139 -.01709685  00000+0 -74303-2 0  9993", "line2": "2 66551  53.1571 236.7807 0000717 110.7411 313.9012 15.87051116  2624"}}, "geometry": {"type": "Point", "coordinates": [145.08841642457762, -49.64107866905594]}}, {"type": "Feature", "properties": {"norad_id": 66554, "name": "GLOBAL-33", "group": "last-30-days", "lat": -6.06756844928005, "lon": -92.64806978903061, "alt_km": 474.98395070510105, "timestamp": "2025-12-08T15:42:48.536836+00:00", "meta": {"OBJECT_NAME": "GLOBAL-33", "OBJECT_ID": "2025-267A", "EPOCH": "2025-12-07T12:17:03.796800", "MEAN_MOTION": 15.3146095, "ECCENTRICITY": 0.00049084, "INCLINATION": 42.0198, "RA_OF_ASC_NODE": 87.1712, "ARG_OF_PERICENTER": 15.3793, "MEAN_ANOMALY": 344.7193, "EPHEMERIS_TYPE": 0, "CLASSIFICATION_TYPE": "U", "NORAD_CAT_ID": 66554, "ELEMENT_SET_NO": 999, "REV_AT_EPOCH": 260, "BSTAR": 0.00066744717, "MEAN_MOTION_DOT": 0.00020529, "MEAN_MOTION_DDOT": 0}, "tle": {"line1": "1 66554U 25267A   25341.51184950  .00020529  00000+0  66745-3 0  9994", "line2": "2 66554  42.0198  87.1712 0004908  15.3793 344.7193 15.31460950  2600"}}, "geometry": {"type": "Point", "coordinates": [-92.64806978903061, -6.06756844928005]}}, {"type": "Feature", "properties": {"norad_id": 66555, "name": "ELECTRON KICK STAGE R/B", "group": "last-30-days", "lat": -34.68922484219924, "lon": -49.30373070200565, "alt_km": 474.9879845364603, "timestamp": "2025-12-08T15:42:48.536847+00:00", "meta": {"OBJECT_NAME": "ELECTRON KICK STAGE R/B", "OBJECT_ID": "2025-267B", "EPOCH": "2025-12-08T06:51:28.969344", "MEAN_MOTION": 15.32485476, "ECCENTRICITY": 0.00068793, "INCLINATION": 42.0194, "RA_OF_ASC_NODE": 82.5898, "ARG_OF_PERICENTER": 19.0488, "MEAN_ANOMALY": 341.0606, "EPHEMERIS_TYPE": 0, "CLASSIFICATION_TYPE": "U", "NORAD_CAT_ID": 66555, "ELEMENT_SET_NO": 999, "REV_AT_EPOCH": 272, "BSTAR": 0.00091949454, "MEAN_MOTION_DOT": 0.00029353, "MEAN_MOTION_DDOT": 0}, "tle": {"line1": "1 66555U 25267B   25342.28575196  .00029353  00000+0  91949-3 0  9994", "line2": "2 66555  42.0194  82.5898 0006879  19.0488 341.0606 15.32485476  2725"}}, "geometry": {"type": "Point", "coordinates": [-49.30373070200565, -34.68922484219924]}}, {"type": "Feature", "properties": {"norad_id": 66557, "name": "STARLINK-35699", "group": "last-30-days", "lat": -33.40508659782554, "lon": 100.04048547290446, "alt_km": 409.8513010537754, "timestamp": "2025-12-08T15:42:48.536858+00:00", "meta": {"OBJECT_NAME": "STARLINK-35699", "OBJECT_ID": "2025-268A", "EPOCH": "2025-12-08T06:00:02.999808", "MEAN_MOTION": 15.54791114, "ECCENTRICITY": 0.00013543, "INCLINATION": 43, "RA_OF_ASC_NODE": 147.4713, "ARG_OF_PERICENTER": 270.1, "MEAN_ANOMALY": 289.5127, "EPHEMERIS_TYPE": 0, "CLASSIFICATION_TYPE": "U", "NORAD_CAT_ID": 66557, "ELEMENT_SET_NO": 999, "REV_AT_EPOCH": 394, "BSTAR": -0.033628099, "MEAN_MOTION_DOT": -0.02049364, "MEAN_MOTION_DDOT": 0}, "tle": {"line1": "1 66557U 25268A   25342.25003472 -.02049364  00000+0 -33628-1 0  9993", "line2": "2 66557  43.0000 147.4713 0001354 270.1000 289.5127 15.54791114  3946"}}, "geometry": {"type": "Point", "coordinates": [100.04048547290446, -33.40508659782554]}}, {"type": "Feature", "properties": {"norad_id": 66558, "name": "STARLINK-35695", "group": "last-30-days", "lat": -32.46771783396334, "lon": 102.02456987959948, "alt_km": 409.78059145567386, "timestamp": "2025-12-08T15:42:48.536872+00:00", "meta": {"OBJECT_NAME": "STARLINK-35695", "OBJECT_ID": "2025-268B", "EPOCH": "2025-12-08T06:00:02.999808", "MEAN_MOTION": 15.54788251, "ECCENTRICITY": 0.0001315, "INCLINATION": 43.0004, "RA_OF_ASC_NODE": 147.4672, "ARG_OF_PERICENTER": 274.246, "MEAN_ANOMALY": 287.2836, "EPHEMERIS_TYPE": 0, "CLASSIFICATION_TYPE": "U", "NORAD_CAT_ID": 66558, "ELEMENT_SET_NO": 999, "REV_AT_EPOCH": 394, "BSTAR": -0.033512519, "MEAN_MOTION_DOT": -0.02042857, "MEAN_MOTION_DDOT": 0}, "tle": {"line1": "1 66558U 25268B   25342.25003472 -.02042857  00000+0 -33513-1 0  9997", "line2": "2 66558  43.0004 147.4672 0001315 274.2460 287.2836 15.54788251  3947"}}, "geometry": {"type": "Point", "coordinates": [102.02456987959948, -32.46771783396334]}}, {"type": "Feature", "properties": {"norad_id": 66559, "name": "STARLINK-35419", "group": "last-30-days", "lat": -31.49699503779531, "lon": 103.97158043214682, "alt_km": 409.6368789327162, "timestamp": "2025-12-08T15:42:48.536882+00:00", "meta": {"OBJECT_NAME": "STARLINK-35419", "OBJECT_ID": "2025-268C", "EPOCH": "2025-12-08T06:00:02.999808", "MEAN_MOTION": 15.54785297, "ECCENTRICITY": 0.0001716, "INCLINATION": 43.0005, "RA_OF_ASC_NODE": 147.4628, "ARG_OF_PERICENTER": 267.0621, "MEAN_ANOMALY": 296.3892, "EPHEMERIS_TYPE": 0, "CLASSIFICATION_TYPE": "U", "NORAD_CAT_ID": 66559, "ELEMENT_SET_NO": 999, "REV_AT_EPOCH": 394, "BSTAR": -0.033565297, "MEAN_MOTION_DOT": -0.02045785, "MEAN_MOTION_DDOT": 0}, "tle": {"line1": "1 66559U 25268C   25342.25003472 -.02045785  00000+0 -33565-1 0  9998", "line2": "2 66559  43.0005 147.4628 0001716 267.0621 296.3892 15.54785297  3944"}}, "geometry": {"type": "Point", "coordinates": [103.97158043214682, -31.49699503779531]}}, {"type": "Feature", "properties": {"norad_id": 66560, "name": "STARLINK-35411", "group": "last-30-days", "lat": -30.50051861643313, "lon": 105.87118939675375, "alt_km": 409.69626488430004, "timestamp": "2025-12-08T15:42:48.536892+00:00", "meta": {"OBJECT_NAME": "STARLINK-35411", "OBJECT_ID": "2025-268D", "EPOCH": "2025-12-08T06:00:02.999808", "MEAN_MOTION": 15.54794236, "ECCENTRICITY": 0.00014004, "INCLINATION": 43.0004, "RA_OF_ASC_NODE": 147.4581, "ARG_OF_PERICENTER": 271.9599, "MEAN_ANOMALY": 293.403, "EPHEMERIS_TYPE": 0, "CLASSIFICATION_TYPE": "U", "NORAD_CAT_ID": 66560, "ELEMENT_SET_NO": 999, "REV_AT_EPOCH": 394, "BSTAR": -0.03372942, "MEAN_MOTION_DOT": -0.02055113, "MEAN_MOTION_DDOT": 0}, "tle": {"line1": "1 66560U 25268D   25342.25003472 -.02055113  00000+0 -33729-1 0  9998", "line2": "2 66560  43.0004 147.4581 0001400 271.9599 293.4030 15.54794236  3946"}}, "geometry": {"type": "Point", "coordinates": [105.87118939675375, -30.50051861643313]}}, {"type": "Feature", "properties": {"norad_id": 66561, "name": "STARLINK-35305", "group": "last-30-days", "lat": -28.424053003334084, "lon": 109.56096201359205, "alt_km": 409.7262699726107, "timestamp": "2025-12-08T15:42:48.536903+00:00", "meta": {"OBJECT_NAME": "STARLINK-35305", "OBJECT_ID": "2025-268E", "EPOCH": "2025-12-08T06:00:02.999808", "MEAN_MOTION": 15.54790042, "ECCENTRICITY": 0.00012903, "INCLINATION": 43.0005, "RA_OF_ASC_NODE": 147.4483, "ARG_OF_PERICENTER": 267.6047, "MEAN_ANOMALY": 301.5943, "EPHEMERIS_TYPE": 0, "CLASSIFICATION_TYPE": "U", "NORAD_CAT_ID": 66561, "ELEMENT_SET_NO": 999, "REV_AT_EPOCH": 389, "BSTAR": -0.033605383, "MEAN_MOTION_DOT": -0.02048015, "MEAN_MOTION_DDOT": 0}, "tle": {"line1": "1 66561U 25268E   25342.25003472 -.02048015  00000+0 -33605-1 0  9995", "line2": "2 66561  43.0005 147.4483 0001290 267.6047 301.5943 15.54790042  3895"}}, "geometry": {"type": "Point", "coordinates": [109.56096201359205, -28.424053003334084]}}, {"type": "Feature", "properties": {"norad_id": 66562, "name": "STARLINK-35579", "group": "last-30-days", "lat": -29.475300123122665, "lon": 107.73390045373986, "alt_km": 409.6966429110953, "timestamp": "2025-12-08T15:42:48.536913+00:00", "meta": {"OBJECT_NAME": "STARLINK-35579", "OBJECT_ID": "2025-268F", "EPOCH": "2025-12-08T06:00:02.999808", "MEAN_MOTION": 15.54794195, "ECCENTRICITY": 0.00013323, "INCLINATION": 43.0005, "RA_OF_ASC_NODE": 147.4524, "ARG_OF_PERICENTER": 271.6446, "MEAN_ANOMALY": 295.6363, "EPHEMERIS_TYPE": 0, "CLASSIFICATION_TYPE": "U", "NORAD_CAT_ID": 66562, "ELEMENT_SET_NO": 999, "REV_AT_EPOCH": 394, "BSTAR": -0.033734505, "MEAN_MOTION_DOT": -0.02055343, "MEAN_MOTION_DDOT": 0}, "tle": {"line1": "1 66562U 25268F   25342.25003472 -.02055343  00000+0 -33735-1 0  9992", "line2": "2 66562  43.0005 147.4524 0001332 271.6446 295.6363 15.54794195  3945"}}, "geometry": {"type": "Point", "coordinates": [107.73390045373986, -29.475300123122665]}}]}